[{"OBJECT_NAME":"STARLINK-35801","OBJECT_ID":"2025-247A","EPOCH":"2026-03-09T14:22:20.780832","MEAN_MOTION":15.30184206,"ECCENTRICITY":0.0001055,"INCLINATION":53.1592,"RA_OF_ASC_NODE":191.5943,"ARG_OF_PERICENTER":47.6791,"MEAN_ANOMALY":312.4299,"EPHEMERIS_TYPE":0,"CLASSIFICATION_TYPE":"U","NORAD_CAT_ID":66265,"ELEMENT_SET_NO":999,"REV_AT_EPOCH":2102,"BSTAR":0.00065932,"MEAN_MOTION_DOT":0.00019209,"MEAN_MOTION_DDOT":0},{"OBJECT_NAME":"SPACEMOBILE-005 DEB","OBJECT_ID":"2024-163K","EPOCH":"2026-03-09T07:33:15.902496","MEAN_MOTION":15.31481997,"ECCENTRICITY":0.00072885,"INCLINATION":52.9762,"RA_OF_ASC_NODE":31.7924,"ARG_OF_PERICENTER":175.8731,"MEAN_ANOMALY":184.2329,"EPHEMERIS_TYPE":0,"CLASSIFICATION_TYPE":"U","NORAD_CAT_ID":62373,"ELEMENT_SET_NO":999,"REV_AT_EPOCH":8280,"BSTAR":0.00063853778,"MEAN_MOTION_DOT":0.00019381,"MEAN_MOTION_DDOT":0}]
